[
  {
    "CCSDS_OMM_VERS": "3.0",
    "COMMENT": "GENERATED VIA SPACE-TRACK.ORG API",
    "CREATION_DATE": "2013-11-04T23:20:46",
    "ORIGINATOR": "18 SPCS",
    "OBJECT_NAME": "IRIDIUM 33 DEB",
    "OBJECT_ID": "1997-051JR",
    "CENTER_NAME": "EARTH",
    "REF_FRAME": "TEME",
    "TIME_SYSTEM": "UTC",
    "MEAN_ELEMENT_THEORY": "SGP4",
    "EPOCH": "2013-11-04T08:25:53.571935",
    "MEAN_MOTION": "15.60759417",
    "ECCENTRICITY": "0.00454010",
    "INCLINATION": "86.2585",
    "RA_OF_ASC_NODE": "82.1895",
    "ARG_OF_PERICENTER": "347.6964",
    "MEAN_ANOMALY": "12.3187",
    "EPHEMERIS_TYPE": "0",
    "CLASSIFICATION_TYPE": "U",
    "NORAD_CAT_ID": "34599",
    "ELEMENT_SET_NO": "999",
    "REV_AT_EPOCH": "25175",
    "BSTAR": "0.06895300000000",
    "MEAN_MOTION_DOT": "0.07239028",
    "MEAN_MOTION_DDOT": "0.0000000000000",
    "SEMIMAJOR_AXIS": "6763.603",
    "PERIOD": "92.262",
    "APOAPSIS": "416.175",
    "PERIAPSIS": "354.761",
    "OBJECT_TYPE": "DEBRIS",
    "RCS_SIZE": "SMALL",
    "COUNTRY_CODE": "US",
    "LAUNCH_DATE": "1997-09-14",
    "SITE": "TTMTR",
    "DECAY_DATE": "2013-11-04",
    "FILE": "1575855",
    "GP_ID": "94262661",
    "TLE_LINE0": "0 IRIDIUM 33 DEB",
    "TLE_LINE1": "1 34599U 97051JR  13308.35131449  .07239028  00000-0  68953-1 0  9990",
    "TLE_LINE2": "2 34599 086.2585 082.1895 0045401 347.6964 012.3187 15.60759417251759"
  },
  {
    "CCSDS_OMM_VERS": "3.0",
    "COMMENT": "GENERATED VIA SPACE-TRACK.ORG API",
    "CREATION_DATE": "2012-09-11T12:59:22",
    "ORIGINATOR": "18 SPCS",
    "OBJECT_NAME": "IRIDIUM 33 DEB",
    "OBJECT_ID": "1997-051JS",
    "CENTER_NAME": "EARTH",
    "REF_FRAME": "TEME",
    "TIME_SYSTEM": "UTC",
    "MEAN_ELEMENT_THEORY": "SGP4",
    "EPOCH": "2012-09-03T02:19:16.116384",
    "MEAN_MOTION": "15.75378777",
    "ECCENTRICITY": "0.00190580",
    "INCLINATION": "86.3341",
    "RA_OF_ASC_NODE": "281.7546",
    "ARG_OF_PERICENTER": "232.2066",
    "MEAN_ANOMALY": "181.5428",
    "EPHEMERIS_TYPE": "0",
    "CLASSIFICATION_TYPE": "U",
    "NORAD_CAT_ID": "34600",
    "ELEMENT_SET_NO": "999",
    "REV_AT_EPOCH": "18717",
    "BSTAR": "0.09732100000000",
    "MEAN_MOTION_DOT": "0.19109750",
    "MEAN_MOTION_DDOT": "0.0000000000000",
    "SEMIMAJOR_AXIS": "6721.694",
    "PERIOD": "91.406",
    "APOAPSIS": "356.370",
    "PERIAPSIS": "330.749",
    "OBJECT_TYPE": "DEBRIS",
    "RCS_SIZE": "SMALL",
    "COUNTRY_CODE": "US",
    "LAUNCH_DATE": "1997-09-14",
    "SITE": "TTMTR",
    "DECAY_DATE": "2012-09-03",
    "FILE": "1348884",
    "GP_ID": "90518995",
    "TLE_LINE0": "0 IRIDIUM 33 DEB",
    "TLE_LINE1": "1 34600U 97051JS  12247.09671431  .19109750  00000-0  97321-1 0  9997",
    "TLE_LINE2": "2 34600 086.3341 281.7546 0019058 232.2066 181.5428 15.75378777187177"
  },
  {
    "CCSDS_OMM_VERS": "3.0",
    "COMMENT": "GENERATED VIA SPACE-TRACK.ORG API",
    "CREATION_DATE": "2011-02-18T00:19:07",
    "ORIGINATOR": "18 SPCS",
    "OBJECT_NAME": "IRIDIUM 33 DEB",
    "OBJECT_ID": "1997-051JT",
    "CENTER_NAME": "EARTH",
    "REF_FRAME": "TEME",
    "TIME_SYSTEM": "UTC",
    "MEAN_ELEMENT_THEORY": "SGP4",
    "EPOCH": "2011-02-18T01:32:17.058912",
    "MEAN_MOTION": "15.66732995",
    "ECCENTRICITY": "0.00135860",
    "INCLINATION": "86.3067",
    "RA_OF_ASC_NODE": "173.9349",
    "ARG_OF_PERICENTER": "294.8919",
    "MEAN_ANOMALY": "65.0789",
    "EPHEMERIS_TYPE": "0",
    "CLASSIFICATION_TYPE": "U",
    "NORAD_CAT_ID": "34601",
    "ELEMENT_SET_NO": "999",
    "REV_AT_EPOCH": "10478",
    "BSTAR": "0.16681000000000",
    "MEAN_MOTION_DOT": "0.23150594",
    "MEAN_MOTION_DDOT": "0.0000000000000",
    "SEMIMAJOR_AXIS": "6746.400",
    "PERIOD": "91.911",
    "APOAPSIS": "377.431",
    "PERIAPSIS": "359.099",
    "OBJECT_TYPE": "DEBRIS",
    "RCS_SIZE": "SMALL",
    "COUNTRY_CODE": "US",
    "LAUNCH_DATE": "1997-09-14",
    "SITE": "TTMTR",
    "DECAY_DATE": "2011-02-18",
    "FILE": "1041621",
    "GP_ID": "81794731",
    "TLE_LINE0": "0 IRIDIUM 33 DEB",
    "TLE_LINE1": "1 34601U 97051JT  11049.06408633  .23150594  00000-0  16681+0 0  9991",
    "TLE_LINE2": "2 34601 086.3067 173.9349 0013586 294.8919 065.0789 15.66732995104785"
  },
  {
    "CCSDS_OMM_VERS": "3.0",
    "COMMENT": "GENERATED VIA SPACE-TRACK.ORG API",
    "CREATION_DATE": "2024-07-19T19:05:29",
    "ORIGINATOR": "18 SPCS",
    "OBJECT_NAME": "IRIDIUM 33 DEB",
    "OBJECT_ID": "1997-051JU",
    "CENTER_NAME": "EARTH",
    "REF_FRAME": "TEME",
    "TIME_SYSTEM": "UTC",
    "MEAN_ELEMENT_THEORY": "SGP4",
    "EPOCH": "2024-07-19T02:45:45.993024",
    "MEAN_MOTION": "16.26958145",
    "ECCENTRICITY": "0.00167490",
    "INCLINATION": "86.3059",
    "RA_OF_ASC_NODE": "223.5105",
    "ARG_OF_PERICENTER": "232.9804",
    "MEAN_ANOMALY": "126.9965",
    "EPHEMERIS_TYPE": "0",
    "CLASSIFICATION_TYPE": "U",
    "NORAD_CAT_ID": "34643",
    "ELEMENT_SET_NO": "999",
    "REV_AT_EPOCH": "81064",
    "BSTAR": "0.00804080000000",
    "MEAN_MOTION_DOT": "0.27463702",
    "MEAN_MOTION_DDOT": "-0.0000014666000",
    "SEMIMAJOR_AXIS": "6578.864",
    "PERIOD": "88.509",
    "APOAPSIS": "211.748",
    "PERIAPSIS": "189.710",
    "OBJECT_TYPE": "DEBRIS",
    "RCS_SIZE": "SMALL",
    "COUNTRY_CODE": "US",
    "LAUNCH_DATE": "1997-09-14",
    "SITE": "TTMTR",
    "DECAY_DATE": "2024-07-19",
    "FILE": "4387281",
    "GP_ID": "262533806",
    "TLE_LINE0": "0 IRIDIUM 33 DEB",
    "TLE_LINE1": "1 34643U 97051JU  24201.11511566  .27463702 -14666-5  80408-2 0  9999",
    "TLE_LINE2": "2 34643  86.3059 223.5105 0016749 232.9804 126.9965 16.26958145810640"
  },
  {
    "CCSDS_OMM_VERS": "3.0",
    "COMMENT": "GENERATED VIA SPACE-TRACK.ORG API",
    "CREATION_DATE": "2009-04-28T10:51:27",
    "ORIGINATOR": "18 SPCS",
    "OBJECT_NAME": "IRIDIUM 33 DEB",
    "OBJECT_ID": "1997-051JV",
    "CENTER_NAME": "EARTH",
    "REF_FRAME": "TEME",
    "TIME_SYSTEM": "UTC",
    "MEAN_ELEMENT_THEORY": "SGP4",
    "EPOCH": "2009-04-28T09:19:57.317376",
    "MEAN_MOTION": "15.14267459",
    "ECCENTRICITY": "0.01926010",
    "INCLINATION": "86.2755",
    "RA_OF_ASC_NODE": "89.2638",
    "ARG_OF_PERICENTER": "92.6183",
    "MEAN_ANOMALY": "43.4952",
    "EPHEMERIS_TYPE": "0",
    "CLASSIFICATION_TYPE": "U",
    "NORAD_CAT_ID": "34644",
    "ELEMENT_SET_NO": "999",
    "REV_AT_EPOCH": "710",
    "BSTAR": "0.26912000000000",
    "MEAN_MOTION_DOT": "0.09357560",
    "MEAN_MOTION_DDOT": "0.0000000000000",
    "SEMIMAJOR_AXIS": "6901.344",
    "PERIOD": "95.095",
    "APOAPSIS": "656.130",
    "PERIAPSIS": "390.289",
    "OBJECT_TYPE": "DEBRIS",
    "RCS_SIZE": "SMALL",
    "COUNTRY_CODE": "US",
    "LAUNCH_DATE": "1997-09-14",
    "SITE": "TTMTR",
    "DECAY_DATE": "2009-05-01",
    "FILE": "707348",
    "GP_ID": "70982734",
    "TLE_LINE0": "0 IRIDIUM 33 DEB",
    "TLE_LINE1": "1 34644U 97051JV  09118.38885784  .09357560  00000-0  26912+0 0  9997",
    "TLE_LINE2": "2 34644 086.2755 089.2638 0192601 092.6183 043.4952 15.14267459  7109"
  },
  {
    "CCSDS_OMM_VERS": "3.0",
    "COMMENT": "GENERATED VIA SPACE-TRACK.ORG API",
    "CREATION_DATE": "2015-03-18T16:46:00",
    "ORIGINATOR": "18 SPCS",
    "OBJECT_NAME": "IRIDIUM 33 DEB",
    "OBJECT_ID": "1997-051JW",
    "CENTER_NAME": "EARTH",
    "REF_FRAME": "TEME",
    "TIME_SYSTEM": "UTC",
    "MEAN_ELEMENT_THEORY": "SGP4",
    "EPOCH": "2015-03-18T15:28:18.377760",
    "MEAN_MOTION": "15.84345357",
    "ECCENTRICITY": "0.00276650",
    "INCLINATION": "86.2676",
    "RA_OF_ASC_NODE": "226.0083",
    "ARG_OF_PERICENTER": "301.5373",
    "MEAN_ANOMALY": "69.0783",
    "EPHEMERIS_TYPE": "0",
    "CLASSIFICATION_TYPE": "U",
    "NORAD_CAT_ID": "34645",
    "ELEMENT_SET_NO": "999",
    "REV_AT_EPOCH": "31933",
    "BSTAR": "0.03807000000000",
    "MEAN_MOTION_DOT": "0.06480357",
    "MEAN_MOTION_DDOT": "0.0695200000000",
    "SEMIMAJOR_AXIS": "6696.305",
    "PERIOD": "90.889",
    "APOAPSIS": "336.695",
    "PERIAPSIS": "299.645",
    "OBJECT_TYPE": "DEBRIS",
    "RCS_SIZE": "SMALL",
    "COUNTRY_CODE": "US",
    "LAUNCH_DATE": "1997-09-14",
    "SITE": "TTMTR",
    "DECAY_DATE": "2015-03-19",
    "FILE": "1842636",
    "GP_ID": "98629051",
    "TLE_LINE0": "0 IRIDIUM 33 DEB",
    "TLE_LINE1": "1 34645U 97051JW  15077.64465715  .06480357  69520-1  38070-1 0  9997",
    "TLE_LINE2": "2 34645 086.2676 226.0083 0027665 301.5373 069.0783 15.84345357319335"
  },
  {
    "CCSDS_OMM_VERS": "3.0",
    "COMMENT": "GENERATED VIA SPACE-TRACK.ORG API",
    "CREATION_DATE": "2009-06-08T09:07:48",
    "ORIGINATOR": "18 SPCS",
    "OBJECT_NAME": "IRIDIUM 33 DEB",
    "OBJECT_ID": "1997-051JX",
    "CENTER_NAME": "EARTH",
    "REF_FRAME": "TEME",
    "TIME_SYSTEM": "UTC",
    "MEAN_ELEMENT_THEORY": "SGP4",
    "EPOCH": "2009-06-04T06:14:48.257664",
    "MEAN_MOTION": "15.47774410",
    "ECCENTRICITY": "0.00389440",
    "INCLINATION": "86.2570",
    "RA_OF_ASC_NODE": "72.4288",
    "ARG_OF_PERICENTER": "160.9092",
    "MEAN_ANOMALY": "199.3616",
    "EPHEMERIS_TYPE": "0",
    "CLASSIFICATION_TYPE": "U",
    "NORAD_CAT_ID": "34646",
    "ELEMENT_SET_NO": "999",
    "REV_AT_EPOCH": "1212",
    "BSTAR": "0.35369000000000",
    "MEAN_MOTION_DOT": "0.24142839",
    "MEAN_MOTION_DDOT": "0.0000000000000",
    "SEMIMAJOR_AXIS": "6801.379",
    "PERIOD": "93.036",
    "APOAPSIS": "449.731",
    "PERIAPSIS": "396.757",
    "OBJECT_TYPE": "DEBRIS",
    "RCS_SIZE": "SMALL",
    "COUNTRY_CODE": "US",
    "LAUNCH_DATE": "1997-09-14",
    "SITE": "TTMTR",
    "DECAY_DATE": "2009-06-04",
    "FILE": "725963",
    "GP_ID": "71589174",
    "TLE_LINE0": "0 IRIDIUM 33 DEB",
    "TLE_LINE1": "1 34646U 97051JX  09155.26028076  .24142839  00000-0  35369+0 0  9994",
    "TLE_LINE2": "2 34646 086.2570 072.4288 0038944 160.9092 199.3616 15.47774410 12120"
  }
]